HST                     
1 20580U 90037B   26174.98863599  .00006014  00000+0  18861-3 0  9998
2 20580  28.4728  34.0889 0001454 220.4821 139.5667 15.30816101789617
POLAR                   
1 23802U 96013A   26172.65844433  .00000083  00000+0  00000+0 0  9998
2 23802  79.8598 226.9999 6474832 208.9246  90.1528  1.29846120144911
SWAS                    
1 25560U 98071A   26175.17174877  .00002113  00000+0  13742-3 0  9992
2 25560  69.8932 209.5067 0008701 252.5786 107.4427 15.09655242498327
CXO                     
1 25867U 99040B   26177.31113606  .00000484  00000+0  00000+0 0  9998
2 25867  56.2784 116.4107 7818645 310.1913   0.3296  0.37800874 17352
XMM-NEWTON              
1 25989U 99066A   26177.32484747  .00000006  00000+0  00000+0 0  9999
2 25989  64.4359 282.8679 4671049  64.7288   0.1080  0.50127949 23049
TERRA                   
1 25994U 99068A   26175.20430418  .00000298  00000+0  69675-4 0  9999
2 25994  97.9452 224.4723 0002134 168.7843 232.0602 14.61107812410638
CLUSTER II-FM7 (SAMBA)  
1 26410U 00041A   26177.06472445  .00005882  00000+0  00000+0 0  9994
2 26410 149.9012  52.3742 9061812 269.6784 359.6419  0.44870397 20352
CLUSTER II-FM8 (TANGO)  
1 26464U 00045B   26172.94229412  .00004849  00000+0  00000+0 0  9995
2 26464 150.1352  52.7746 9062813 269.8657   2.6673  0.44420336 20332
ODIN                    
1 26702U 01007A   26175.07484566  .00195232  00000+0  11252-2 0  9990
2 26702  97.3809 216.4694 0006595 136.3483 223.8306 15.78110127390481
TIMED                   
1 26998U 01055B   26175.16697389  .00000794  00000+0  75686-4 0  9990
2 26998  74.0664 220.9648 0001492 325.5540  34.5548 14.95305582331866
CORIOLIS                
1 27640U 03001A   26175.24368433  .00000086  00000+0  61005-4 0  9996
2 27640  98.7125 182.0207 0013781 187.8035 172.2929 14.19946525215225
SORCE                   
1 27651U 03004A   26174.84729145  .00001856  00000+0  14354-3 0  9997
2 27651  39.9898 223.6787 0016223 100.3840 259.8783 15.03739410272909
MOST                    
1 27843U 03031D   26174.96937228  .00000052  00000+0  43860-4 0  9998
2 27843  98.7044 182.6007 0008946 228.4506 131.5905 14.21323643191673
SCISAT 1                
1 27858U 03036A   26175.24870661  .00000513  00000+0  70157-4 0  9999
2 27858  73.9287 157.3125 0008329 227.6176 132.4296 14.81454091232499
SWIFT                   
1 28485U 04047A   26174.54645673  .00043334  00000+0  35134-3 0  9997
2 28485  20.5513 135.8253 0001483  26.9955 333.0568 15.68870405187866
HINODE (SOLAR-B)        
1 29479U 06041A   26174.99854165  .00000536  00000+0  10043-3 0  9993
2 29479  98.0544 191.0507 0015942 266.1522  93.7861 14.68630648 55876
SHIJIAN-6 02A (SJ-6 02A)
1 29505U 06046A   26175.28149551  .00003918  00000+0  20171-3 0  9997
2 29505  97.6359 216.4012 0004752 108.5710 251.6040 15.17008628 73341
SHIJIAN-6 02B (SJ-6 02B)
1 29506U 06046B   26175.27759064  .00000888  00000+0  73435-4 0  9998
2 29506  97.7161 204.2926 0015416  40.2589 319.9774 15.01391082 71801
FGRST (GLAST)           
1 33053U 08029A   26175.23472545  .00002311  00000+0  79263-4 0  9993
2 33053  25.5802 155.5440 0008312  51.4317 308.6965 15.23970927996913
SDO                     
1 36395U 10005A   26174.30590450 -.00000088  00000+0  00000+0 0  9993
2 36395  34.6648  86.2482 0001733  49.0122 144.1818  1.00270594 60125
CRYOSAT 2               
1 36508U 10013A   26175.24920162  .00000126  00000+0  30562-4 0  9992
2 36508  92.0358 279.0181 0002120  93.1747 266.9702 14.51901407859102
X-SAT                   
1 37389U 11015C   26175.24605463  .00000082  00000+0  52607-4 0  9992
2 37389  98.3514 151.9333 0013447 327.3846  32.6502 14.25208230788681
GCOM-W1 (SHIZUKU)       
1 38337U 12025A   26174.57766326  .00000328  00000+0  82822-4 0  9994
2 38337  98.2021 115.0366 0001698  71.2428 101.7942 14.57129425749967
NUSTAR                  
1 38358U 12031A   26175.33335648  .00003756  00000+0  17852-3 0  9996
2 38358   6.0282 340.5468 0008495 223.3363 267.7784 15.08864835  1308
NEOSSAT                 
1 39089U 13009D   26175.24785027  .00000124  00000+0  57554-4 0  9994
2 39089  98.4180 355.1126 0010187 220.6447 139.3979 14.35828567697750
BRITE-AUSTRIA           
1 39091U 13009F   26175.24296421  .00000141  00000+0  62493-4 0  9999
2 39091  98.3998 354.5040 0009475 213.3753 146.6838 14.36544475698068
IRIS                    
1 39197U 13033A   26175.30300223  .00000828  00000+0  10099-3 0  9992
2 39197  97.9328  14.5577 0023098 297.4200  62.4666 14.85897125701439
HISAKI (SPRINT-A)       
1 39253U 13049A   26174.75741055  .00000109  00000+0  62315-4 0  9993
2 39253  29.7171 186.6070 0136852  70.1162 291.4100 13.55545251632319
CASSIOPE                
1 39265U 13055A   26175.24589659  .00044822 -44174-6  48637-3 0  9996
2 39265  80.9141  58.1464 0290226  38.7155 323.4487 15.25808920668740
STSAT-3                 
1 39422U 13066G   26175.23740296  .00002839  00000+0  21647-3 0  9994
2 39422  97.6220 145.0120 0010674  25.8887 334.2870 15.02791242685264
